{"type": "FeatureCollection", "features": [ {"type": "Feature", "properties": {"norad_id": 58655, "name": "BEIDOU-3 M26 (C48)", "group": "beidou", "lat": -18.21141210802243, "lon": -98.23349186144358, "alt_km": 21524.242795265352, "timestamp": "2025-12-08T05:48:09.300209+00:00", "meta": {"OBJECT_NAME": "BEIDOU-3 M26 (C48)", "OBJECT_ID": "2023-207B", "EPOCH": "2025-12-07T09:40:28.837056", "MEAN_MOTION": 1.86231105, "ECCENTRICITY": 0.0003615, "INCLINATION": 55.5821, "RA_OF_ASC_NODE": 68.7685, "ARG_OF_PERICENTER": 253.2983, "MEAN_ANOMALY": 106.6805, "EPHEMERIS_TYPE": 0, "CLASSIFICATION_TYPE": "U", "NORAD_CAT_ID": 58655, "ELEMENT_SET_NO": 999, "REV_AT_EPOCH": 1325, "BSTAR": 0, "MEAN_MOTION_DOT": -4.6e-07, "MEAN_MOTION_DDOT": 0}, "tle": {"line1": "1 58655U 23207B   25341.40311154 -.00000046  00000+0  00000+0 0  9996", "line2": "2 58655  55.5821  68.7685 0003615 253.2983 106.6805  1.86231105 13258"}}, "geometry": {"type": "Point", "coordinates": [-98.23349186144358, -18.21141210802243]}}, {"type": "Feature", "properties": {"norad_id": 61186, "name": "BEIDOU-3 M25 (C47)", "group": "beidou", "lat": -32.18851401210116, "lon": -77.66849268993782, "alt_km": 21518.25360793257, "timestamp": "2025-12-08T05:48:09.300220+00:00", "meta": {"OBJECT_NAME": "BEIDOU-3 M25 (C47)", "OBJECT_ID": "2024-168B", "EPOCH": "2025-12-07T11:49:46.567776", "MEAN_MOTION": 1.86229795, "ECCENTRICITY": 0.000545, "INCLINATION": 54.6466, "RA_OF_ASC_NODE": 308.9013, "ARG_OF_PERICENTER": 295.4181, "MEAN_ANOMALY": 241.6791, "EPHEMERIS_TYPE": 0, "CLASSIFICATION_TYPE": "U", "NORAD_CAT_ID": 61186, "ELEMENT_SET_NO": 999, "REV_AT_EPOCH": 821, "BSTAR": 0, "MEAN_MOTION_DOT": -7.2e-07, "MEAN_MOTION_DDOT": 0}, "tle": {"line1": "1 61186U 24168B   25341.49290009 -.00000072  00000+0  00000+0 0  9999", "line2": "2 61186  54.6466 308.9013 0005450 295.4181 241.6791  1.86229795  8213"}}, "geometry": {"type": "Point", "coordinates": [-77.66849268993782, -32.18851401210116]}}, {"type": "Feature", "properties": {"norad_id": 61187, "name": "BEIDOU-3 M27 (C49)", "group": "beidou", "lat": 54.42798974232008, "lon": 46.03373172908024, "alt_km": 21525.206135055196, "timestamp": "2025-12-08T05:48:09.300231+00:00", "meta": {"OBJECT_NAME": "BEIDOU-3 M27 (C49)", "OBJECT_ID": "2024-168C", "EPOCH": "2025-12-07T02:45:45.916992", "MEAN_MOTION": 1.86229917, "ECCENTRICITY": 0.00022869, "INCLINATION": 54.6424, "RA_OF_ASC_NODE": 308.8981, "ARG_OF_PERICENTER": 332.2687, "MEAN_ANOMALY": 86.4832, "EPHEMERIS_TYPE": 0, "CLASSIFICATION_TYPE": "U", "NORAD_CAT_ID": 61187, "ELEMENT_SET_NO": 999, "REV_AT_EPOCH": 568, "BSTAR": 0, "MEAN_MOTION_DOT": -7.1e-07, "MEAN_MOTION_DDOT": 0}, "tle": {"line1": "1 61187U 24168C   25341.11511478 -.00000071  00000+0  00000+0 0  9994", "line2": "2 61187  54.6424 308.8981 0002286 332.2687  86.4832  1.86229917  5681"}}, "geometry": {"type": "Point", "coordinates": [46.03373172908024, 54.42798974232008]}}]}